ONEWEB-0228             
1 48780U 21045P   24245.45756133  .00000168  00000+0  41257-3 0  9996
2 48780  87.9064  29.2646 0001658  98.3919 261.7400 13.15547946158370
